#aV2015 12 31  0  0  0.00000000     288 DD+AD WGS84 FIT  NGA
## 1877 345600.00000000   300.00000000 57387 0.0000000000000
+   31     1  2  3  5  6  7  8  9 10 11 12 13 14 15 16 17 18
+         19 20 21 22 23 24 25 26 27 28 29 30 31 32  0  0  0
+          0  0  0  0  0  0  0  0  0  0  0  0  0  0  0  0  0
+          0  0  0  0  0  0  0  0  0  0  0  0  0  0  0  0  0
+          0  0  0  0  0  0  0  0  0  0  0  0  0  0  0  0  0
++         2  2  2  2  2  2  2  2  2  2  2  2  2  2  2  2  2
++         2  2  2  2  2  2  2  2  2  2  2  2  2  2  0  0  0
++         0  0  0  0  0  0  0  0  0  0  0  0  0  0  0  0  0
++         0  0  0  0  0  0  0  0  0  0  0  0  0  0  0  0  0
++         0  0  0  0  0  0  0  0  0  0  0  0  0  0  0  0  0
%c cc cc ccc ccc cccc cccc cccc cccc ccccc ccccc ccccc ccccc
%c cc cc ccc ccc cccc cccc cccc cccc ccccc ccccc ccccc ccccc
%f  0.0000000  0.000000000  0.00000000000  0.000000000000000
%f  0.0000000  0.000000000  0.00000000000  0.000000000000000
%i    0    0    0    0      0      0      0      0         0
%i    0    0    0    0      0      0      0      0         0
/*      NGA, ST. LOUIS,MO.                                  
/*   EPHEMERIS COMPUTED FROM 2 DAYS OF DATA                 
/*   EPOCHA v2.4 SMOOTHER                                   
/*   G1762 IERS2010 SATAF SATAPC                            
*  2015 12 31  6  5  0.00000000
P  1  13870.681231 -21272.564810   7325.120451      7.953651                    
V  1   -907.631308   9804.167585  30091.371549      0.009386                    
P  2 -16016.524705    233.873152 -20720.404320    598.659561                    
V  2   8057.601005 -26193.466373  -6821.758712      0.004573                    
P  3  18911.881955 -12664.939320 -13707.157771     -5.130150                    
V  3  17533.814946   -462.450724  24607.773650     -0.051441                    
P  5 -26365.650187   1634.609451  -3718.585212   -159.901754                    
V  5   4058.231602  -3779.199462 -30826.838796      0.036126                    
P  6  -9912.857829 -13767.343770 -20434.972848    121.225517                    
V  6  10212.850510 -23868.863472  11114.967065      0.063306                    
P  7   4409.159098 -24795.821173   7912.978388    475.522847                    
V  7   6314.116490  -8173.288719 -29991.225784     -0.013716                    
P  8  15112.573034  -4982.733209  21319.922917    -18.228953                    
V  8  16541.458703  21273.865838  -6767.215729     -0.014304                    
P  9  -4176.462636 -21670.836057 -14787.983242     39.944203                    
V  9  13538.722354  13175.143749 -23164.015583      0.079737                    
P 10  13254.187599  11898.793750  19722.381214     47.973797                    
V 10 -24524.872928   5106.783564  13359.284937      0.023773                    
P 11  11520.377371 -18848.028251  14152.978806   -624.690743                    
V 11   3520.262910  19176.536238  21895.118219     -0.019991                    
P 12 -21315.507850  10164.368514 -12037.235399    357.417217                    
V 12 -15249.477196   -131.668344  27342.694979      0.028388                    
P 13 -18122.837166  -4888.821522  18617.420140   -175.141346                    
V 13 -11651.042808 -20941.858453 -16808.684293     -0.026357                    
P 14  14591.510966  22283.252798    815.778292     12.139494                    
V 14  -2523.329395    843.177094  31728.252790     -0.023301                    
P 15 -13500.835615   8489.983533  21145.523894   -289.878727                    
V 15 -18026.164942 -20386.490365  -2961.796488     -0.019001                    
P 16  26454.374667    464.429431  -4138.193839    -52.550906                    
V 16  -4933.845227   1937.003340 -31587.581608      0.033581                    
P 17 -14761.635294 -22169.143661   1753.378513   -197.847147                    
V 17   2831.824294    183.037853  31829.700861     -0.008414                    
P 18    950.105356  16283.302114  21461.845898    468.171773                    
V 18 -25876.310701   4337.156152  -2475.273051      0.037762                    
P 19 -11630.251311 -23169.832505   4465.686912   -524.135226                    
V 19   5629.510664   3485.363336  31595.766267     -0.002475                    
P 20 -20440.630659  13112.907928  10669.359510    382.278226                    
V 20 -14240.590499    -84.615543 -26710.718452      0.027407                    
P 21    209.754585  24158.243204  11407.511417   -502.581207                    
V 21  -7545.398797  11702.961023 -26636.625661     -0.021259                    
P 22  19808.661884   8572.681734  15829.864202    416.268992                    
V 22 -18956.764639   6020.662757  20594.758002     -0.034483                    
P 23   7391.408003 -14577.758362 -20687.090714   -152.499358                    
V 23  17618.423428  20218.911572  -8316.606549     -0.019579                    
P 24 -14743.907568  19525.534302  10061.525305    -10.037318                    
V 24   1682.561268 -13131.111255  28012.720697     -0.005446                    
P 25  -8944.990376  15023.643410 -20035.800001    -91.592748                    
V 25 -25089.059030   2841.731275  13573.502790     -0.062365                    
P 26  22107.168218   5986.013508 -13469.036474   -189.866270                    
V 26 -16534.832184   4894.584119 -24923.863678     -0.170698                    
P 27  19691.973044   5941.739238  16858.786294     49.112268                    
V 27  12259.841609  17574.171470 -20352.329177      0.033869                    
P 28 -11859.919521 -12720.496802  20730.779663    492.023427                    
V 28  24684.091435  -2572.854987  12887.015316      0.026973                    
P 29    716.896079  20534.658185 -16833.808974    650.169215                    
V 29 -13663.215017 -16483.697922 -20630.372723      0.012944                    
P 30  -3283.675144 -20505.452281  16510.782431     78.172750                    
V 30  10775.931554 -18160.091803 -20485.045062      0.049767                    
P 31  10516.745356  11934.649868 -21083.798869    289.053418                    
V 31 -11367.275242  24603.380660   8558.432017     -0.016206                    
P 32  25347.049166  -5217.551859  -4599.382028     65.155271                    
V 32   6106.468807   3205.921125  31043.657149      0.122918                    
EOF
